[{"OBJECT_NAME":"STARLINK-3941","OBJECT_ID":"2022-052AS","EPOCH":"2026-03-09T20:00:03.329568","MEAN_MOTION":15.08843185,"ECCENTRICITY":0.00013416,"INCLINATION":53.2163,"RA_OF_ASC_NODE":268.4809,"ARG_OF_PERICENTER":90.3772,"MEAN_ANOMALY":269.7374,"EPHEMERIS_TYPE":0,"CLASSIFICATION_TYPE":"U","NORAD_CAT_ID":52638,"ELEMENT_SET_NO":999,"REV_AT_EPOCH":21182,"BSTAR":9.719511e-6,"MEAN_MOTION_DOT":-1.33e-6,"MEAN_MOTION_DDOT":0},{"OBJECT_NAME":"CZ-4B DEB","OBJECT_ID":"2004-035K","EPOCH":"2026-03-08T06:51:30.377664","MEAN_MOTION":15.09293825,"ECCENTRICITY":0.00031468,"INCLINATION":97.5843,"RA_OF_ASC_NODE":91.2716,"ARG_OF_PERICENTER":107.6302,"MEAN_ANOMALY":252.527,"EPHEMERIS_TYPE":0,"CLASSIFICATION_TYPE":"U","NORAD_CAT_ID":29043,"ELEMENT_SET_NO":999,"REV_AT_EPOCH":10418,"BSTAR":0.00031897975,"MEAN_MOTION_DOT":5.021e-5,"MEAN_MOTION_DDOT":0}]
